{
    "links": {
        "self": "http://www.neowsapp.com/rest/v1/neo/3652984?api_key=iIulBulltgU6a56xZRHN4H3l9WmuAYTsLGpBGhQ2"
    },
    "id": "3652984",
    "neo_reference_id": "3652984",
    "name": "(2013 UE1)",
    "designation": "2013 UE1",
    "nasa_jpl_url": "http://ssd.jpl.nasa.gov/sbdb.cgi?sstr=3652984",
    "absolute_magnitude_h": 24.4,
    "estimated_diameter": {
        "kilometers": {
            "estimated_diameter_min": 0.0350392641,
            "estimated_diameter_max": 0.0783501764
        },
        "meters": {
            "estimated_diameter_min": 35.0392641108,
            "estimated_diameter_max": 78.3501764334
        },
        "miles": {
            "estimated_diameter_min": 0.0217723826,
            "estimated_diameter_max": 0.0486845275
        },
        "feet": {
            "estimated_diameter_min": 114.9582192654,
            "estimated_diameter_max": 257.0543928497
        }
    },
    "is_potentially_hazardous_asteroid": false,
    "close_approach_data": [
        {
            "close_approach_date": "2013-11-07",
            "close_approach_date_full": "2013-Nov-07 23:51",
            "epoch_date_close_approach": 1383868260000,
            "relative_velocity": {
                "kilometers_per_second": "8.9635405829",
                "kilometers_per_hour": "32268.7460985587",
                "miles_per_hour": "20050.5439299628"
            },
            "miss_distance": {
                "astronomical": "0.0190835189",
                "lunar": "7.4234888521",
                "kilometers": "2854853.779544743",
                "miles": "1773923.8806657334"
            },
            "orbiting_body": "Earth"
        }
    ],
    "orbital_data": {
        "orbit_id": "14",
        "orbit_determination_date": "2017-04-06 08:44:05",
        "first_observation_date": "2013-10-22",
        "last_observation_date": "2013-11-06",
        "data_arc_in_days": 15,
        "observations_used": 63,
        "orbit_uncertainty": "7",
        "minimum_orbit_intersection": ".0184221",
        "jupiter_tisserand_invariant": "3.671",
        "epoch_osculation": "2459000.5",
        "eccentricity": ".5283394365315623",
        "semi_major_axis": "1.983334835457804",
        "inclination": "2.69324161648666",
        "ascending_node_longitude": "201.51274338165",
        "orbital_period": "1020.216837464689",
        "perihelion_distance": ".9354608260386089",
        "perihelion_argument": "236.8205503730589",
        "aphelion_distance": "3.031208844876999",
        "perihelion_time": "2458671.258229324736",
        "mean_anomaly": "116.178280038627",
        "mean_motion": ".3528661621529648",
        "equinox": "J2000",
        "orbit_class": {
            "orbit_class_type": "APO",
            "orbit_class_description": "Near-Earth asteroid orbits which cross the Earth’s orbit similar to that of 1862 Apollo",
            "orbit_class_range": "a (semi-major axis) > 1.0 AU; q (perihelion) < 1.017 AU"
        }
    },
    "is_sentry_object": false
}